77P/Longmore,e,24.3464,14.8037,196.7268,3.615789,0.1433506,0.35345701,26.8584,11/17.0/2016,2000,g  7.0,8.0
# From MPC102101
78P/Gehrels,e,6.2494,210.5549,192.7081,3.738092,0.1363732,0.46112974,241.7632,11/17.0/2016,2000,g  5.5,8.0
# From MPC 94675
79P/du Toit-Hartley,e,3.1459,280.5562,281.7784,2.945280,0.1949908,0.61915072,230.2722,11/17.0/2016,2000,g 16.0,4.0
# From MPC 89313
80P/Peters-Hartley,e,29.9266,259.8556,339.1574,4.023421,0.1221268,0.59932117,90.1078,11/17.0/2016,2000,g  9.0,8.0
# From MPC 98565
81P/Wild,e,3.2390,136.1245,41.6886,3.448316,0.1539194,0.53829113,18.4254,11/17.0/2016,2000,g  7.0,6.0
# From MPC 75717
82P/Gehrels,e,1.1275,239.3116,227.1441,4.144381,0.1168193,0.12314246,291.2922,11/17.0/2016,2000,g  5.0,8.0
# From MPC 69911
84P/Giclas,e,7.2713,111.7858,276.4237,3.618221,0.1432061,0.50143227,173.1897,11/17.0/2016,2000,g  9.5,8.0
# From MPC 79347
86P/Wild,e,15.4720,72.3929,179.1796,3.605486,0.1439655,0.37225508,85.4399,11/17.0/2016,2000,g 11.0,6.0
# From MPC 87068
87P/Bus,e,2.6021,181.8809,24.7782,3.440900,0.1544173,0.38942817,164.1231,11/17.0/2016,2000,g  7.2,10.0
# From MPC 95735
88P/Howell,e,4.3834,56.6963,235.8770,3.108051,0.1798755,0.56319126,106.2619,11/17.0/2016,2000,g 11.0,6.0
# From MPC 10028
89P/Russell,e,12.0766,41.4452,250.1520,3.750968,0.1356716,0.40802288,356.2424,11/17.0/2016,2000,g 11.5,6.0
# From MPC102101
90P/Gehrels,e,9.6354,13.2520,29.2787,6.069076,0.0659205,0.50983334,345.8719,11/17.0/2016,2000,g  8.5,6.0
# From MPC 84320
91P/Russell,e,14.0847,247.8281,354.5487,3.896412,0.1281465,0.32995682,173.7955,11/17.0/2016,2000,g  7.5,6.0
# From MPC 88331
92P/Sanguin,e,19.4445,181.4577,163.7669,5.354971,0.0795368,0.65916501,49.8624,11/17.0/2016,2000,g 12.0,6.0
# From NK 2707
93P/Lovas,e,12.2047,339.6280,74.8974,4.389863,0.1071587,0.61271058,348.8071,11/17.0/2016,2000,g  9.5,6.0
# From MPC 84320
94P/Russell,e,6.1856,70.8791,92.7709,3.511175,0.1498047,0.36488887,3.0478,11/17.0/2016,2000,g  9.0,6.0
# From MPC 75717
95P/Chiron,e,6.9481,209.2105,339.5759,13.64157,0.0195617,0.38263732,148.0500,11/17.0/2016,2000,g  6.3,2.0
# From NK 2733
96P/Machholz,e,58.1544,94.2656,14.7908,3.034564,0.1864488,0.95916811,295.6816,11/17.0/2016,2000,g 13.0,4.8
# From MPC 77020
97P/Metcalf-Brewington,e,17.8624,185.1800,228.2423,4.799833,0.0937270,0.45695262,179.8208,11/17.0/2016,2000,g  5.5,6.0
# From MPC 83523
98P/Takamizawa,e,10.5485,114.7180,157.8054,3.804215,0.1328331,0.56112361,159.3198,11/17.0/2016,2000,g  9.0,8.0
# From MPC 75718
99P/Kowal,e,4.3392,28.1826,174.3798,6.127777,0.0649755,0.23085137,232.1454,11/17.0/2016,2000,g  4.5,6.0
# From MPC 84321
100P/Hartley,e,25.5893,37.7245,181.8744,3.427719,0.1553089,0.41340766,35.5582,11/17.0/2016,2000,g  9.0,8.0
# From MPC 75718
101P/Chernykh,e,5.0499,116.2400,277.6696,5.792112,0.0707048,0.59490053,278.5473,11/17.0/2016,2000,g 10.0,4.8
# From MPC 86232
102P/Shoemaker,e,26.0645,339.7234,20.6705,3.798933,0.1331103,0.46118708,156.8627,11/17.0/2016,2000,g  6.5,8.0
# From NK 2714
103P/Hartley,e,13.5937,219.7259,181.3042,3.477375,0.1519941,0.69346107,336.5167,11/17.0/2016,2000,g  8.5,8.0
# From MPC 10028
104P/Kowal,e,10.2581,235.4288,200.6883,3.263231,0.1671985,0.63866283,39.0929,11/17.0/2016,2000,g 16.0,4.0
# From MPC 94676
105P/Singer Brewster,e,9.1766,192.4321,46.5237,3.466094,0.1527368,0.41002249,263.5344,11/17.0/2016,2000,g 11.5,6.0
# From MPC 92276
106P/Schuster,e,20.2772,50.1815,355.9693,3.747805,0.1358434,0.59080081,115.4689,11/17.0/2016,2000,g 14.0,4.8
# From MPC 94676
107P/Wilson-Harrington,e,2.7816,267.3761,94.6574,2.632802,0.2307154,0.63017536,232.5670,11/17.0/2016,2000,g 16.0,2.0
# From MPC 89313
108P/Ciffreo,e,13.2020,53.1555,358.2701,3.734952,0.1365452,0.54680544,103.6336,11/17.0/2016,2000,g  8.0,12.0
# From ICA 105, 420
109P/Swift-Tuttle,e,113.1233,139.7328,153.0583,26.10560,0.0073893,0.96377038,64.6389,11/17.0/2016,2000,g  4.5,6.0
# From MPC 91618
110P/Hartley,e,11.6855,287.5782,167.5183,3.608067,0.1438110,0.31553524,100.8278,11/17.0/2016,2000,g  1.0,12.0
# From MPC 75718
111P/Helin-Roman-Crockett,e,4.2284,89.7681,1.8640,4.139293,0.1170347,0.10542776,163.6325,11/17.0/2016,2000,g  5.0,8.0
# From MPC 69910
112P/Urata-Niijima,e,24.2052,31.9103,21.3599,3.529725,0.1486253,0.58793557,184.6709,11/17.0/2016,2000,g 14.0,6.0
# From MPC 92984
113P/Spitaler,e,5.7774,14.3659,50.2215,3.692799,0.1388899,0.42688273,79.4159,11/17.0/2016,2000,g 13.5,4.0
# From MPC 82722
114P/Wiseman-Skiff,e,18.2775,271.0639,172.8681,3.544262,0.1477118,0.55458098,189.6353,11/17.0/2016,2000,g 11.5,6.0
# From MPC 76027
115P/Maury,e,11.6718,176.0460,121.0565,4.271711,0.1116352,0.51779432,209.0566,11/17.0/2016,2000,g 10.5,6.0
# From MPC102101
116P/Wild,e,3.6082,20.9946,173.3166,3.483914,0.1515664,0.37218876,47.0558,11/17.0/2016,2000,g  2.5,10.0
# From MPC 95735
117P/Helin-Roman-Alu,e,8.7001,58.8739,222.5293,4.093781,0.1189918,0.25425584,114.9813,11/17.0/2016,2000,g  2.5,8.0
# From MPC 95735
118P/Shoemaker-Levy,e,8.5141,151.7269,302.3473,3.462939,0.1529455,0.42819993,23.4016,11/17.0/2016,2000,g 12.0,4.0
# From MPC 84628
119P/Parker-Hartley,e,5.2768,241.7905,182.3718,4.268223,0.1117721,0.30288579,107.0503,11/17.0/2016,2000,g  3.5,8.0
# From MPC 80901
120P/Mueller,e,8.8811,3.8609,28.7753,4.084978,0.1193767,0.35203493,162.3147,11/17.0/2016,2000,g 12.0,4.0
# From MPC 10028
121P/Shoemaker-Holt,e,20.1562,94.1449,11.5330,4.593274,0.1001199,0.18323476,117.5165,11/17.0/2016,2000,g  6.5,8.0
# From MPC 75718
122P/de Vico,e,84.9788,79.5553,13.0465,17.66311,0.0132771,0.96260309,102.3263,11/17.0/2016,2000,g  7.5,5.2
# From MPC102101
123P/West-Hartley,e,15.3581,46.5055,102.9692,3.860220,0.1299529,0.44913349,254.7625,11/17.0/2016,2000,g  4.0,10.0
# From MPC 87068
124P/Mrkos,e,31.5317,0.4024,183.7897,3.318648,0.1630280,0.50396587,155.2229,11/17.0/2016,2000,g 13.5,2.8
# From MPC 94676
125P/Spacewatch,e,9.9883,153.1887,87.1578,3.124680,0.1784415,0.51317028,244.1764,11/17.0/2016,2000,g 13.0,6.0
# From MPC 66205
126P/IRAS,e,45.7818,357.8186,356.5941,5.641590,0.0735532,0.69512878,181.4858,11/17.0/2016,2000,g  6.0,8.0
# From MPC 84321
127P/Holt-Olmstead,e,14.3026,13.6492,6.6860,3.449338,0.1538510,0.36050684,37.5790,11/17.0/2016,2000,g 11.0,6.0
# From MPC 75719
128P/Shoemaker-Holt,e,4.3645,214.2922,210.5777,4.502054,0.1031782,0.32122758,354.3481,11/17.0/2016,2000,g  8.5,4.0
# From MPC 10028
129P/Shoemaker-Levy,e,3.4442,184.8971,308.8845,4.276368,0.1114529,0.08470918,113.1431,11/17.0/2016,2000,g 11.0,4.0
# From MPC 78188
130P/McNaught-Hughes,e,6.0599,70.3050,245.7241,3.387692,0.1580695,0.46136407,291.9718,11/17.0/2016,2000,g 10.0,6.0
# From MPC102101
131P/Mueller,e,7.3543,214.1960,179.1247,3.679052,0.1396690,0.34284018,248.4648,11/17.0/2016,2000,g 11.0,4.0
# From MPC 92985
132P/Helin-Roman-Alu,e,6.2075,178.5365,218.1440,3.984231,0.1239331,0.56615433,110.2745,11/17.0/2016,2000,g 11.0,6.0
# From MPC 94676
133P/Elst-Pizarro,e,1.3882,160.1250,131.7663,3.163036,0.1752055,0.15969511,242.1097,11/17.0/2016,2000,g 15.4,2.0
# From MPC 89012
134P/Kowal-Vavrova,e,4.3498,202.0854,18.6768,6.243343,0.0631798,0.58805469,57.5028,11/17.0/2016,2000,g 11.5,4.0
# From MPC 92985
135P/Shoemaker-Levy,e,6.0625,213.0800,22.0351,3.804538,0.1328163,0.29564289,99.0835,11/17.0/2016,2000,g  7.0,8.0
# From MPC101100
136P/Mueller,e,9.4156,137.4501,225.1546,4.203116,0.1143792,0.29123609,19.4313,11/17.0/2016,2000,g 11.0,4.0
# From MPC 75719
137P/Shoemaker-Levy,e,4.8514,233.0730,140.9610,4.519148,0.1025934,0.57227815,282.3760,11/17.0/2016,2000,g 11.0,4.0
# From MPC102101
138P/Shoemaker-Levy,e,10.0851,309.3603,95.5878,3.622669,0.1429424,0.52956720,231.7598,11/17.0/2016,2000,g 15.0,6.0
# From MPC102101
139P/Vaisala-Oterma,e,2.3324,242.2221,166.1130,4.530008,0.1022246,0.24636609,320.2190,11/17.0/2016,2000,g  9.5,4.0
# From MPC 92985
140P/Bowell-Skiff,e,3.8211,343.3896,172.9305,6.446073,0.0602228,0.69160372,28.0909,11/17.0/2016,2000,g 11.5,6.0
# From MPC 94284
141P/Machholz,e,12.8541,245.6257,149.9021,3.025690,0.1872696,0.74876938,84.1998,11/17.0/2016,2000,g 12.0,12.0
# From MPC 71683
142P/Ge-Wang,e,12.3637,176.4712,174.9025,4.949986,0.0894949,0.50056586,212.8416,11/17.0/2016,2000,g  8.5,6.0
# From MPC 94676
143P/Kowal-Mrkos,e,4.6953,245.3095,320.8636,4.293453,0.1107883,0.41006209,300.5735,11/17.0/2016,2000,g 13.5,2.0
# From MPC101100
144P/Kushida,e,4.1149,245.4879,216.1533,3.857450,0.1300929,0.62891631,10.1368,11/17.0/2016,2000,g  8.5,8.0
# From MPC 75720
145P/Shoemaker-Levy,e,11.2598,26.8116,10.3841,4.145452,0.1167740,0.54072019,326.3755,11/17.0/2016,2000,g 13.5,4.0
# From MPC 10028
146P/Shoemaker-LINEAR,e,23.0730,53.4541,316.9745,4.039694,0.1213896,0.64599533,16.9796,11/17.0/2016,2000,g 15.0,4.0
# From MPC 75720
147P/Kushida-Muramatsu,e,2.3688,93.7290,347.1140,3.800597,0.1330229,0.27726178,34.9819,11/17.0/2016,2000,g 14.0,4.0
# From MPC 89730
148P/Anderson-LINEAR,e,3.6830,89.7315,6.6256,3.671687,0.1400895,0.53986470,73.1690,11/17.0/2016,2000,g 16.0,2.0
# From MPC 75720
149P/Mueller,e,29.7644,145.2532,43.6573,4.319964,0.1097701,0.38990177,269.8102,11/17.0/2016,2000,g  8.0,8.0
# From MPC 75720
150P/LONEOS,e,18.5065,272.4187,245.6757,3.884003,0.1287611,0.54695198,14.8179,11/17.0/2016,2000,g 13.5,4.0
# From MPC 95214
151P/Helin,e,4.7196,143.1521,216.2362,5.777462,0.0709739,0.57189289,28.8178,11/17.0/2016,2000,g 10.0,6.0
# From MPC 79346
152P/Helin-Lawrence,e,9.8728,91.8730,163.5305,4.489664,0.1036056,0.30808470,164.9094,11/17.0/2016,2000,g 11.5,4.0
# From MPC 46101
153P/Ikeya-Zhang,e,27.9807,93.2946,34.8072,51.26719,0.0026850,0.99008379,0.0000,03/22.4372/2002,2000,g  7.0,4.0
# From MPC 87068
154P/Brewington,e,17.7506,343.2317,47.8783,4.810565,0.0934136,0.67615247,100.0471,11/17.0/2016,2000,g  2.5,12.0
# From MPC 75720
155P/Shoemaker,e,6.3984,97.2416,14.7168,6.583889,0.0583419,0.72694292,296.2390,11/17.0/2016,2000,g 10.0,4.8
# From MPC 92985
156P/Russell-LINEAR,e,20.9906,38.5540,357.8563,3.583398,0.1452986,0.56314771,137.0878,11/17.0/2016,2000,g 15.5,2.0
# From MPC 95214
